0 SL-12 R/B(AUX MOTOR)
1 20631U 90045G   13281.03271997  .00000410  00000-0  36302-3 0  3988
2 20631 064.6234 067.5033 5658558 340.2651 324.8961 04.45115896369785
0 SL-12 R/B(AUX MOTOR)
1 20631U 90045G   13282.41044396  .00000500  00000-0  40324-3 0  3992
2 20631 064.6242 066.9474 5658169 340.2117 012.5845 04.45119349369847
0 SL-12 R/B(AUX MOTOR)
1 20631U 90045G   13283.52874684  .00001769  00000-0  14950-2 0  4013
2 20631 064.6215 066.5007 5657743 340.1644 004.5890 04.45119029369897
0 SL-12 R/B(AUX MOTOR)
1 20631U 90045G   13283.53316519  .00000546  00000-0  42054-3 0  4000
2 20631 064.6248 066.4944 5657863 340.1685 011.6624 04.45120592369891
0 SL-12 R/B(AUX MOTOR)
1 20631U 90045G   13285.55906424  .00000577  00000-0  45101-3 0  4015
2 20631 064.6255 065.6766 5657343 340.0904 018.0311 04.45122016369985
0 SL-12 R/B(AUX MOTOR)
1 20631U 90045G   13287.35189943  .00000574  00000-0  49899-3 0  4020
2 20631 064.6266 064.9537 5656913 340.0208 010.9429 04.45124476370068
0 SL-12 R/B(AUX MOTOR)
1 20631U 90045G   13288.47650580  .00000675  00000-0  62788-3 0  4039
2 20631 064.6270 064.5000 5656650 339.9767 013.0653 04.45127400370118
0 SL-12 R/B(AUX MOTOR)
1 20631U 90045G   13290.49889372  .00000543  00000-0  57259-3 0  4049
2 20631 064.6280 063.6843 5656181 339.8972 013.8590 04.45130078370203
0 SL-12 R/B(AUX MOTOR)
1 20631U 90045G   13293.65055442  .00000578  00000-0  60126-3 0  4059
2 20631 064.6295 062.4134 5655469 339.7726 024.3068 04.45134424370344
0 SL-12 R/B(AUX MOTOR)
1 20631U 90045G   13294.96239721  .00000537  00000-0  53905-3 0  4061
2 20631 064.6303 061.8848 5655154 339.7202 326.5122 04.45136841370409
